[{"OBJECT_NAME":"STARLINK-6239","OBJECT_ID":"2023-061BB","EPOCH":"2026-03-08T13:30:47.288448","MEAN_MOTION":15.02537229,"ECCENTRICITY":0.00011696,"INCLINATION":43.0027,"RA_OF_ASC_NODE":177.7115,"ARG_OF_PERICENTER":275.8336,"MEAN_ANOMALY":84.2373,"EPHEMERIS_TYPE":0,"CLASSIFICATION_TYPE":"U","NORAD_CAT_ID":56423,"ELEMENT_SET_NO":999,"REV_AT_EPOCH":15688,"BSTAR":6.1795971e-5,"MEAN_MOTION_DOT":6.31e-6,"MEAN_MOTION_DDOT":0},{"OBJECT_NAME":"COSMOS 2251 DEB","OBJECT_ID":"1993-036APY","EPOCH":"2026-02-27T18:53:11.975424","MEAN_MOTION":14.91799606,"ECCENTRICITY":0.00652266,"INCLINATION":74.0385,"RA_OF_ASC_NODE":248.3743,"ARG_OF_PERICENTER":297.547,"MEAN_ANOMALY":61.9095,"EPHEMERIS_TYPE":0,"CLASSIFICATION_TYPE":"U","NORAD_CAT_ID":35703,"ELEMENT_SET_NO":999,"REV_AT_EPOCH":67764,"BSTAR":0.00062223908,"MEAN_MOTION_DOT":6.504e-5,"MEAN_MOTION_DDOT":0}]
